STARLINK-2143
1 17733C 21017M   21326.13975081  .00007829  00000-0  52464-3 0  3267
2 17733  53.0419  63.1792 0001317  73.0686 240.0807 15.06385619    14
